{
    "links": {
        "self": "http://www.neowsapp.com/rest/v1/neo/54017651?api_key=iIulBulltgU6a56xZRHN4H3l9WmuAYTsLGpBGhQ2"
    },
    "id": "54017651",
    "neo_reference_id": "54017651",
    "name": "(2020 MH3)",
    "designation": "2020 MH3",
    "nasa_jpl_url": "http://ssd.jpl.nasa.gov/sbdb.cgi?sstr=54017651",
    "absolute_magnitude_h": 25.106,
    "estimated_diameter": {
        "kilometers": {
            "estimated_diameter_min": 0.025313662,
            "estimated_diameter_max": 0.056603069
        },
        "meters": {
            "estimated_diameter_min": 25.313661983,
            "estimated_diameter_max": 56.6030689534
        },
        "miles": {
            "estimated_diameter_min": 0.0157291755,
            "estimated_diameter_max": 0.0351715056
        },
        "feet": {
            "estimated_diameter_min": 83.0500747802,
            "estimated_diameter_max": 185.7056127451
        }
    },
    "is_potentially_hazardous_asteroid": false,
    "close_approach_data": [
        {
            "close_approach_date": "1948-08-11",
            "close_approach_date_full": "1948-Aug-11 12:06",
            "epoch_date_close_approach": -674999640000,
            "relative_velocity": {
                "kilometers_per_second": "24.6735998464",
                "kilometers_per_hour": "88824.9594468654",
                "miles_per_hour": "55192.3754963037"
            },
            "miss_distance": {
                "astronomical": "0.4494349434",
                "lunar": "174.8301929826",
                "kilometers": "67234510.236210558",
                "miles": "41777587.4083113804"
            },
            "orbiting_body": "Earth"
        },
        {
            "close_approach_date": "2020-06-19",
            "close_approach_date_full": "2020-Jun-19 10:39",
            "epoch_date_close_approach": 1592563140000,
            "relative_velocity": {
                "kilometers_per_second": "9.7642691422",
                "kilometers_per_hour": "35151.3689117711",
                "miles_per_hour": "21841.6936440947"
            },
            "miss_distance": {
                "astronomical": "0.0278213685",
                "lunar": "10.8225123465",
                "kilometers": "4162017.468085095",
                "miles": "2586157.732940511"
            },
            "orbiting_body": "Earth"
        }
    ],
    "orbital_data": {
        "orbit_id": "6",
        "orbit_determination_date": "2020-09-11 07:48:23",
        "first_observation_date": "2020-06-26",
        "last_observation_date": "2020-07-18",
        "data_arc_in_days": 22,
        "observations_used": 29,
        "orbit_uncertainty": "7",
        "minimum_orbit_intersection": ".0264264",
        "jupiter_tisserand_invariant": "3.160",
        "epoch_osculation": "2459000.5",
        "eccentricity": ".5984254977930492",
        "semi_major_axis": "2.530334939128607",
        "inclination": "8.937866781475192",
        "ascending_node_longitude": "276.0417154499097",
        "orbital_period": "1470.162853774529",
        "perihelion_distance": "1.016117993597426",
        "perihelion_argument": "335.2968214459129",
        "aphelion_distance": "4.044551884659789",
        "perihelion_time": "2459005.569635634186",
        "mean_anomaly": "358.7585941083865",
        "mean_motion": ".244870831197869",
        "equinox": "J2000",
        "orbit_class": {
            "orbit_class_type": "APO",
            "orbit_class_description": "Near-Earth asteroid orbits which cross the Earth’s orbit similar to that of 1862 Apollo",
            "orbit_class_range": "a (semi-major axis) > 1.0 AU; q (perihelion) < 1.017 AU"
        }
    },
    "is_sentry_object": false
}